NORAD_CAT_ID,OBJECT_NAME,OBJECT_TYPE,EPOCH,MEAN_MOTION,ECCENTRICITY,INCLINATION,RA_OF_ASC_NODE,ARG_OF_PERICENTER,MEAN_ANOMALY,BSTAR,MEAN_MOTION_DOT,MEAN_MOTION_DDOT,TLE_LINE0,TLE_LINE1,TLE_LINE2,SEMIMAJOR_AXIS,PERIOD,APOGEE,PERIGEE,DECAYED
54190.0,STARLINK-5281,PAYLOAD,2024-01-24 19:06:56,15.08836993,0.000137,53.2171,232.8668,102.9105,257.204,3.5335e-05,2.74e-06,0.0,0 STARLINK-5281,1 54190U 22141AK  24024.79648553  .00000274  00000-0  35335-4 0  9994,2 54190  53.2171 232.8668 0001370 102.9105 257.2040 15.08836993 69247,6917.89,95.438,540.702,538.807,0.0
54190.0,STARLINK-5281,PAYLOAD,2024-01-24 20:42:19,15.08835646,0.0001315,53.2168,232.5701,94.7367,265.3775,3.2301e-05,2.26e-06,0.0,0 STARLINK-5281,1 54190U 22141AK  24024.86272672  .00000226  00000-0  32301-4 0  9994,2 54190  53.2168 232.5701 0001315  94.7367 265.3775 15.08835646 69020,6917.894,95.438,540.668,538.849,0.0
54190.0,STARLINK-5281,PAYLOAD,2024-01-25 18:57:43,15.08846728,0.0001401,53.2171,228.4143,100.6128,259.5022,-8.5433e-05,-1.648e-05,0.0,0 STARLINK-5281,1 54190U 22141AK  24025.79008569 -.00001648  00000-0 -85433-4 0  9994,2 54190  53.2171 228.4143 0001401 100.6128 259.5022 15.08846728 69164,6917.86,95.437,540.694,538.756,0.0
54190.0,STARLINK-5281,PAYLOAD,2024-01-26 18:48:31,15.08827919,0.0001343,53.216,223.949,83.6102,276.5044,8.0443e-06,-1.6e-06,0.0,0 STARLINK-5281,1 54190U 22141AK  24026.78369981 -.00000160  00000-0  80443-5 0  9996,2 54190  53.2160 223.9490 0001343  83.6102 276.5044 15.08827919 69540,6917.917,95.438,540.711,538.853,0.0
54190.0,STARLINK-5281,PAYLOAD,2024-01-27 12:17:46,15.08828588,0.0001445,53.2164,220.6788,93.7711,266.3447,6.3395e-05,7.21e-06,0.0,0 STARLINK-5281,1 54190U 22141AK  24027.51234239  .00000721  00000-0  63395-4 0  9993,2 54190  53.2164 220.6788 0001445  93.7711 266.3447 15.08828588 69423,6917.915,95.438,540.78,538.781,0.0
54190.0,STARLINK-5281,PAYLOAD,2024-01-27 20:14:41,15.08832616,0.0001425,53.2162,219.1934,87.1355,272.98,9.205e-05,1.177e-05,0.0,0 STARLINK-5281,1 54190U 22141AK  24027.84354157  .00001177  00000-0  92050-4 0  9997,2 54190  53.2162 219.1934 0001425  87.1355 272.9800 15.08832616 69700,6917.903,95.438,540.754,538.782,0.0
54190.0,STARLINK-5281,PAYLOAD,2024-01-28 12:08:33,15.08836729,0.0001403,53.2163,216.2191,86.1949,273.9203,0.00013102,1.798e-05,0.0,0 STARLINK-5281,1 54190U 22141AK  24028.50594012  .00001798  00000-0  13102-3 0  9996,2 54190  53.2163 216.2191 0001403  86.1949 273.9203 15.08836729 69570,6917.89,95.438,540.726,538.785,0.0
54190.0,STARLINK-5281,PAYLOAD,2024-01-28 18:30:05,15.08839917,0.0001421,53.2165,215.0303,85.3287,274.7867,0.00015072,2.112e-05,0.0,0 STARLINK-5281,1 54190U 22141AK  24028.77089842  .00002112  00000-0  15072-3 0  9994,2 54190  53.2165 215.0303 0001421  85.3287 274.7867 15.08839917 69847,6917.881,95.438,540.729,538.763,0.0
54190.0,STARLINK-5281,PAYLOAD,2024-01-29 21:31:37,15.08853155,0.0001455,53.2166,209.9749,81.8759,278.2398,0.00015175,2.129e-05,0.0,0 STARLINK-5281,1 54190U 22141AK  24029.89696719  .00002129  00000-0  15175-3 0  9997,2 54190  53.2166 209.9749 0001455  81.8759 278.2398 15.08853155 69787,6917.84,95.437,540.712,538.699,0.0
54190.0,STARLINK-5281,PAYLOAD,2024-01-30 15:00:52,15.08875125,0.0001391,53.2172,206.7048,97.9024,262.2126,-0.00036745,-6.137e-05,0.0,0 STARLINK-5281,1 54190U 22141AK  24030.62560430 -.00006137  00000-0 -36745-3 0  9991,2 54190  53.2172 206.7048 0001391  97.9024 262.2126 15.08875125 69898,6917.773,95.435,540.6,538.676,0.0
54190.0,STARLINK-5281,PAYLOAD,2024-01-30 18:11:38,15.0884742,0.0001531,53.217,206.1085,100.7738,259.3427,1.6954e-05,-1.8e-07,0.0,0 STARLINK-5281,1 54190U 22141AK  24030.75808893 -.00000018  00000-0  16954-4 0  9995,2 54190  53.2170 206.1085 0001531 100.7738 259.3427 15.08847420 70140,6917.858,95.437,540.782,538.664,0.0
54190.0,STARLINK-5281,PAYLOAD,2024-01-30 21:22:24,15.08848773,0.0001488,53.2165,205.5127,102.5755,257.5404,2.1321e-05,5.1e-07,0.0,0 STARLINK-5281,1 54190U 22141AK  24030.89056655  .00000051  00000-0  21321-4 0  9991,2 54190  53.2165 205.5127 0001488 102.5755 257.5404 15.08848773 69936,6917.854,95.437,540.748,538.689,0.0
54190.0,STARLINK-5281,PAYLOAD,2024-01-31 11:40:53,15.088407,0.000165,53.2163,202.8335,105.6772,254.4402,-7.8147e-05,-1.532e-05,0.0,0 STARLINK-5281,1 54190U 22141AK  24031.48673362 -.00001532  00000-0 -78147-4 0  9992,2 54190  53.2163 202.8335 0001650 105.6772 254.4402 15.08840700 70252,6917.878,95.438,540.885,538.602,0.0
54190.0,STARLINK-5281,PAYLOAD,2024-01-31 21:13:12,15.0883775,0.0001645,53.2165,201.0496,107.7149,252.4023,-9.3516e-05,-1.776e-05,0.0,0 STARLINK-5281,1 54190U 22141AK  24031.88417555 -.00001776  00000-0 -93516-4 0  9993,2 54190  53.2165 201.0496 0001645 107.7149 252.4023 15.08837750 70087,6917.887,95.438,540.89,538.614,0.0
54190.0,STARLINK-5281,PAYLOAD,2024-02-01 11:31:40,15.08838724,0.0001632,53.2177,198.3733,108.5542,251.5627,4.7356e-05,4.66e-06,0.0,0 STARLINK-5281,1 54190U 22141AK  24032.48032969  .00000466  00000-0  47356-4 0  9996,2 54190  53.2177 198.3733 0001632 108.5542 251.5627 15.08838724 70176,6917.884,95.438,540.878,538.62,0.0
54190.0,STARLINK-5281,PAYLOAD,2024-02-01 17:53:12,15.0884238,0.0001438,53.2159,197.1847,90.9649,269.1507,6.6186e-05,7.66e-06,0.0,0 STARLINK-5281,1 54190U 22141AK  24032.74528777  .00000766  00000-0  66186-4 0  9997,2 54190  53.2159 197.1847 0001438  90.9649 269.1507 15.08842380 70440,6917.873,95.437,540.733,538.743,0.0
54190.0,STARLINK-5281,PAYLOAD,2024-02-02 14:33:14,15.08835684,0.0001401,53.2171,193.3222,87.7953,272.32,6.5626e-05,7.57e-06,0.0,0 STARLINK-5281,1 54190U 22141AK  24033.60641359  .00000757  00000-0  65626-4 0  9993,2 54190  53.2171 193.3222 0001401  87.7953 272.3200 15.08835684 70345,6917.894,95.438,540.728,538.789,0.0
54190.0,STARLINK-5281,PAYLOAD,2024-02-02 16:08:37,15.08836255,0.0001402,53.2171,193.0248,87.7052,272.4101,6.9131e-05,8.12e-06,0.0,0 STARLINK-5281,1 54190U 22141AK  24033.67265329  .00000812  00000-0  69131-4 0  9996,2 54190  53.2171 193.0248 0001402  87.7052 272.4101 15.08836255 70583,6917.892,95.438,540.727,538.787,0.0
54190.0,STARLINK-5281,PAYLOAD,2024-02-03 19:10:10,15.0884204,0.0001345,53.2164,187.9696,85.5814,274.5332,1.1648e-05,-1.03e-06,0.0,0 STARLINK-5281,1 54190U 22141AK  24034.79873353 -.00000103  00000-0  11648-4 0  9996,2 54190  53.2164 187.9696 0001345  85.5814 274.5332 15.08842040 70759,6917.874,95.437,540.67,538.809,0.0
54190.0,STARLINK-5281,PAYLOAD,2024-02-04 14:14:48,15.08840278,0.0001243,53.2159,184.401,88.7934,271.3201,6.5554e-05,7.56e-06,0.0,0 STARLINK-5281,1 54190U 22141AK  24035.59361264  .00000756  00000-0  65554-4 0  9996,2 54190  53.2159 184.4010 0001243  88.7934 271.3201 15.08840278 70649,6917.88,95.438,540.604,538.885,0.0
54190.0,STARLINK-5281,PAYLOAD,2024-02-04 17:25:34,15.08843817,0.0001317,53.2165,183.8064,87.7348,272.3795,9.0898e-05,1.159e-05,0.0,0 STARLINK-5281,1 54190U 22141AK  24035.72608983  .00001159  00000-0  90898-4 0  9990,2 54190  53.2165 183.8064 0001317  87.7348 272.3795 15.08843817 70661,6917.869,95.437,540.645,538.823,0.0
54190.0,STARLINK-5281,PAYLOAD,2024-02-05 14:05:35,15.08839049,0.0001342,53.2166,179.9405,87.4822,272.6323,2.7157e-05,1.44e-06,0.0,0 STARLINK-5281,1 54190U 22141AK  24036.58721523  .00000144  00000-0  27157-4 0  9992,2 54190  53.2166 179.9405 0001342  87.4822 272.6323 15.08839049 70795,6917.883,95.438,540.677,538.82,0.0
54190.0,STARLINK-5281,PAYLOAD,2024-02-05 17:16:21,15.08839702,0.0001444,53.2169,179.3462,73.5353,286.5797,8.9605e-05,1.138e-05,0.0,0 STARLINK-5281,1 54190U 22141AK  24036.71969339  .00001138  00000-0  89605-4 0  9996,2 54190  53.2169 179.3462 0001444  73.5353 286.5797 15.08839702 71047,6917.881,95.438,540.745,538.747,0.0
54190.0,STARLINK-5281,PAYLOAD,2024-02-06 13:56:22,15.08841176,0.0001529,53.2172,175.4816,75.4047,284.7115,3.1446e-05,2.13e-06,0.0,0 STARLINK-5281,1 54190U 22141AK  24037.58081452  .00000213  00000-0  31446-4 0  9996,2 54190  53.2172 175.4816 0001529  75.4047 284.7115 15.08841176 70946,6917.877,95.437,540.8,538.684,0.0
54190.0,STARLINK-5281,PAYLOAD,2024-02-06 15:31:45,15.08842054,0.0001913,53.2168,175.185,60.2315,299.8868,4.2923e-05,3.95e-06,0.0,0 STARLINK-5281,1 54190U 22141AK  24037.64705500  .00000395  00000-0  42923-4 0  9993,2 54190  53.2168 175.1850 0001913  60.2315 299.8868 15.08842054 70952,6917.874,95.437,541.063,538.416,0.0
54190.0,STARLINK-5281,PAYLOAD,2024-02-07 12:11:46,15.08836164,0.0001635,53.217,171.32,66.7565,293.3599,-3.1865e-06,-3.39e-06,0.0,0 STARLINK-5281,1 54190U 22141AK  24038.50818031 -.00000339  00000-0 -31865-5 0  9997,2 54190  53.2170 171.3200 0001635  66.7565 293.3599 15.08836164 71317,6917.892,95.438,540.888,538.626,0.0
54190.0,STARLINK-5281,PAYLOAD,2024-02-07 15:22:32,15.08839049,0.0001408,53.2169,170.723,83.5612,276.554,2.4533e-05,1.03e-06,0.0,0 STARLINK-5281,1 54190U 22141AK  24038.64065657  .00000103  00000-0  24533-4 0  9990,2 54190  53.2169 170.7230 0001408  83.5612 276.5540 15.08839049 71100,6917.883,95.438,540.722,538.774,0.0
54190.0,STARLINK-5281,PAYLOAD,2024-02-08 12:02:34,15.08831913,0.0001352,53.2174,166.8576,90.1063,270.0084,-4.043e-05,-9.31e-06,0.0,0 STARLINK-5281,1 54190U 22141AK  24039.50178679 -.00000931  00000-0 -40430-4 0  9990,2 54190  53.2174 166.8576 0001352  90.1063 270.0084 15.08831913 71460,6917.905,95.438,540.705,538.835,0.0
54190.0,STARLINK-5281,PAYLOAD,2024-02-08 13:37:57,15.08833697,0.0001399,53.2175,166.5598,91.781,268.3343,-4.3544e-05,-9.81e-06,0.0,0 STARLINK-5281,1 54190U 22141AK  24039.56802610 -.00000981  00000-0 -43544-4 0  9999,2 54190  53.2175 166.5598 0001399  91.7810 268.3343 15.08833697 71245,6917.9,95.438,540.732,538.797,0.0
54190.0,STARLINK-5281,PAYLOAD,2024-02-08 18:24:06,15.08837463,0.0001373,53.2177,165.6662,87.8588,272.2561,-3.0382e-05,-7.71e-06,0.0,0 STARLINK-5281,1 54190U 22141AK  24039.76674347 -.00000771  00000-0 -30382-4 0  9998,2 54190  53.2177 165.6662 0001373  87.8588 272.2561 15.08837463 71273,6917.888,95.438,540.703,538.803,0.0
